SL-14 R/B               
1 16792U 86046B   26003.87572498  .00000939  00000+0  10534-3 0  9996
2 16792  82.4829 141.4095 0024532  82.7663 277.6341 14.85515563116788
SL-14 R/B               
1 16882U 86055B   26004.01818904  .00000913  00000+0  10259-3 0  9994
2 16882  82.5198 187.4380 0018803 181.9176 293.8661 14.85558942109763
AJISAI (EGS)            
1 16908U 86061A   26004.31362449 -.00000069  00000+0  19893-3 0  9997
2 16908  50.0103 291.3051 0011316 122.5563 326.0996 12.44514632459984
COSMOS 1812             
1 17295U 87003A   26004.17915844  .00166397  00000+0  83831-3 0  9990
2 17295  82.4860 267.6380 0004578  59.7974 300.3747 15.81173351134198
SL-14 R/B               
1 17567U 87024B   26003.86532550  .00000986  00000+0  10960-3 0  9993
2 17567  82.5287 153.6698 0019518 113.6903 246.6364 14.86054793 78503
COSMOS 1833             
1 17589U 87027A   26004.30005808  .00000351  00000+0  21319-3 0  9997
2 17589  70.9183 101.3542 0023600 300.3888  59.4900 14.13035822  1228
SL-16 R/B               
1 17590U 87027B   26004.31907756  .00000124  00000+0  85043-4 0  9996
2 17590  71.0031  52.1396 0006911 235.8271 124.2198 14.17156456  6224
SL-14 R/B               
1 17912U 87038B   26004.23112622  .00000853  00000+0  96225-4 0  9990
2 17912  82.5013 357.5140 0019884  22.1923 338.0149 14.85288907 69662
COSMOS 1844             
1 17973U 87041A   26004.19102631  .00000158  00000+0  10721-3 0  9999
2 17973  70.8987 170.2172 0028727 121.7285 238.6642 14.14538832994462
SL-14 R/B               
1 18153U 87055B   26004.21908779  .00000743  00000+0  82946-4 0  9994
2 18153  82.4982  49.8007 0019613 223.7305 136.2358 14.85548586 60360
COSMOS 1867             
1 18187U 87060A   26004.30810496  .00000032  00000+0  49682-4 0  9996
2 18187  65.0108 127.0025 0013795 273.4256  86.5251 14.31491027 10727
SL-14 R/B               
1 18749U 88001B   26004.21017774  .00000756  00000+0  84652-4 0  9993
2 18749  82.5127 256.0139 0019612  91.4214 268.9249 14.85451609 32459
