CCSDS_OMM_VERS = 2.0
CREATION_DATE  = 
ORIGINATOR     = 

OBJECT_NAME    = SL-14 R/B
OBJECT_ID      = 1986-046B
CENTER_NAME    = EARTH
REF_FRAME      = TEME
TIME_SYSTEM    = UTC
MEAN_ELEMENT_THEORY = SGP/SGP4

EPOCH          = 2026-01-03T21:01:02.638272
MEAN_MOTION    = 14.85515563
ECCENTRICITY   = .0024532
INCLINATION    = 82.4829
RA_OF_ASC_NODE = 141.4095
ARG_OF_PERICENTER = 82.7663
MEAN_ANOMALY   = 277.6341

EPHEMERIS_TYPE = 0
CLASSIFICATION_TYPE = U
NORAD_CAT_ID   = 16792
ELEMENT_SET_NO = 999
REV_AT_EPOCH   = 11678
BSTAR          = .10534E-3
MEAN_MOTION_DOT = .939E-5
MEAN_MOTION_DDOT = 0

CCSDS_OMM_VERS = 2.0
CREATION_DATE  = 
ORIGINATOR     = 

OBJECT_NAME    = SL-14 R/B
OBJECT_ID      = 1986-055B
CENTER_NAME    = EARTH
REF_FRAME      = TEME
TIME_SYSTEM    = UTC
MEAN_ELEMENT_THEORY = SGP/SGP4

EPOCH          = 2026-01-04T00:26:11.533056
MEAN_MOTION    = 14.85558942
ECCENTRICITY   = .00188038
INCLINATION    = 82.5198
RA_OF_ASC_NODE = 187.4380
ARG_OF_PERICENTER = 181.9176
MEAN_ANOMALY   = 293.8661

EPHEMERIS_TYPE = 0
CLASSIFICATION_TYPE = U
NORAD_CAT_ID   = 16882
ELEMENT_SET_NO = 999
REV_AT_EPOCH   = 10976
BSTAR          = .10258863E-3
MEAN_MOTION_DOT = .913E-5
MEAN_MOTION_DDOT = 0

CCSDS_OMM_VERS = 2.0
CREATION_DATE  = 
ORIGINATOR     = 

OBJECT_NAME    = AJISAI (EGS)
OBJECT_ID      = 1986-061A
CENTER_NAME    = EARTH
REF_FRAME      = TEME
TIME_SYSTEM    = UTC
MEAN_ELEMENT_THEORY = SGP/SGP4

EPOCH          = 2026-01-04T07:31:37.155936
MEAN_MOTION    = 12.44514632
ECCENTRICITY   = .00113167
INCLINATION    = 50.0103
RA_OF_ASC_NODE = 291.3051
ARG_OF_PERICENTER = 122.5563
MEAN_ANOMALY   = 326.0996

EPHEMERIS_TYPE = 0
CLASSIFICATION_TYPE = U
NORAD_CAT_ID   = 16908
ELEMENT_SET_NO = 999
REV_AT_EPOCH   = 45998
BSTAR          = .19893439E-3
MEAN_MOTION_DOT = -.69E-6
MEAN_MOTION_DDOT = 0

CCSDS_OMM_VERS = 2.0
CREATION_DATE  = 
ORIGINATOR     = 

OBJECT_NAME    = COSMOS 1812
OBJECT_ID      = 1987-003A
CENTER_NAME    = EARTH
REF_FRAME      = TEME
TIME_SYSTEM    = UTC
MEAN_ELEMENT_THEORY = SGP/SGP4

EPOCH          = 2026-01-04T04:17:59.289216
MEAN_MOTION    = 15.81173351
ECCENTRICITY   = .00045781
INCLINATION    = 82.4860
RA_OF_ASC_NODE = 267.6380
ARG_OF_PERICENTER = 59.7974
MEAN_ANOMALY   = 300.3747

EPHEMERIS_TYPE = 0
CLASSIFICATION_TYPE = U
NORAD_CAT_ID   = 17295
ELEMENT_SET_NO = 999
REV_AT_EPOCH   = 13419
BSTAR          = .83830597E-3
MEAN_MOTION_DOT = .166397E-2
MEAN_MOTION_DDOT = 0

CCSDS_OMM_VERS = 2.0
CREATION_DATE  = 
ORIGINATOR     = 

OBJECT_NAME    = SL-14 R/B
OBJECT_ID      = 1987-024B
CENTER_NAME    = EARTH
REF_FRAME      = TEME
TIME_SYSTEM    = UTC
MEAN_ELEMENT_THEORY = SGP/SGP4

EPOCH          = 2026-01-03T20:46:04.123200
MEAN_MOTION    = 14.86054793
ECCENTRICITY   = .0019518
INCLINATION    = 82.5287
RA_OF_ASC_NODE = 153.6698
ARG_OF_PERICENTER = 113.6903
MEAN_ANOMALY   = 246.6364

EPHEMERIS_TYPE = 0
CLASSIFICATION_TYPE = U
NORAD_CAT_ID   = 17567
ELEMENT_SET_NO = 999
REV_AT_EPOCH   = 7850
BSTAR          = .1096E-3
MEAN_MOTION_DOT = .986E-5
MEAN_MOTION_DDOT = 0

CCSDS_OMM_VERS = 2.0
CREATION_DATE  = 
ORIGINATOR     = 

OBJECT_NAME    = COSMOS 1833
OBJECT_ID      = 1987-027A
CENTER_NAME    = EARTH
REF_FRAME      = TEME
TIME_SYSTEM    = UTC
MEAN_ELEMENT_THEORY = SGP/SGP4

EPOCH          = 2026-01-04T07:12:05.018112
MEAN_MOTION    = 14.13035822
ECCENTRICITY   = .00236002
INCLINATION    = 70.9183
RA_OF_ASC_NODE = 101.3542
ARG_OF_PERICENTER = 300.3888
MEAN_ANOMALY   = 59.4900

EPHEMERIS_TYPE = 0
CLASSIFICATION_TYPE = U
NORAD_CAT_ID   = 17589
ELEMENT_SET_NO = 999
REV_AT_EPOCH   = 122
BSTAR          = .21318871E-3
MEAN_MOTION_DOT = .351E-5
MEAN_MOTION_DDOT = 0

CCSDS_OMM_VERS = 2.0
CREATION_DATE  = 
ORIGINATOR     = 

OBJECT_NAME    = SL-16 R/B
OBJECT_ID      = 1987-027B
CENTER_NAME    = EARTH
REF_FRAME      = TEME
TIME_SYSTEM    = UTC
MEAN_ELEMENT_THEORY = SGP/SGP4

EPOCH          = 2026-01-04T07:39:28.301184
MEAN_MOTION    = 14.17156456
ECCENTRICITY   = .00069119
INCLINATION    = 71.0031
RA_OF_ASC_NODE = 52.1396
ARG_OF_PERICENTER = 235.8271
MEAN_ANOMALY   = 124.2198

EPHEMERIS_TYPE = 0
CLASSIFICATION_TYPE = U
NORAD_CAT_ID   = 17590
ELEMENT_SET_NO = 999
REV_AT_EPOCH   = 622
BSTAR          = .85043048E-4
MEAN_MOTION_DOT = .124E-5
MEAN_MOTION_DDOT = 0

CCSDS_OMM_VERS = 2.0
CREATION_DATE  = 
ORIGINATOR     = 

OBJECT_NAME    = SL-14 R/B
OBJECT_ID      = 1987-038B
CENTER_NAME    = EARTH
REF_FRAME      = TEME
TIME_SYSTEM    = UTC
MEAN_ELEMENT_THEORY = SGP/SGP4

EPOCH          = 2026-01-04T05:32:49.305408
MEAN_MOTION    = 14.85288907
ECCENTRICITY   = .00198846
INCLINATION    = 82.5013
RA_OF_ASC_NODE = 357.5140
ARG_OF_PERICENTER = 22.1923
MEAN_ANOMALY   = 338.0149

EPHEMERIS_TYPE = 0
CLASSIFICATION_TYPE = U
NORAD_CAT_ID   = 17912
ELEMENT_SET_NO = 999
REV_AT_EPOCH   = 6966
BSTAR          = .9622522E-4
MEAN_MOTION_DOT = .853E-5
MEAN_MOTION_DDOT = 0

CCSDS_OMM_VERS = 2.0
CREATION_DATE  = 
ORIGINATOR     = 

OBJECT_NAME    = COSMOS 1844
OBJECT_ID      = 1987-041A
CENTER_NAME    = EARTH
REF_FRAME      = TEME
TIME_SYSTEM    = UTC
MEAN_ELEMENT_THEORY = SGP/SGP4

EPOCH          = 2026-01-04T04:35:04.673184
MEAN_MOTION    = 14.14538832
ECCENTRICITY   = .0028727
INCLINATION    = 70.8987
RA_OF_ASC_NODE = 170.2172
ARG_OF_PERICENTER = 121.7285
MEAN_ANOMALY   = 238.6642

EPHEMERIS_TYPE = 0
CLASSIFICATION_TYPE = U
NORAD_CAT_ID   = 17973
ELEMENT_SET_NO = 999
REV_AT_EPOCH   = 99446
BSTAR          = .10720768E-3
MEAN_MOTION_DOT = .158E-5
MEAN_MOTION_DDOT = 0

CCSDS_OMM_VERS = 2.0
CREATION_DATE  = 
ORIGINATOR     = 

OBJECT_NAME    = SL-14 R/B
OBJECT_ID      = 1987-055B
CENTER_NAME    = EARTH
REF_FRAME      = TEME
TIME_SYSTEM    = UTC
MEAN_ELEMENT_THEORY = SGP/SGP4

EPOCH          = 2026-01-04T05:15:29.185056
MEAN_MOTION    = 14.85548586
ECCENTRICITY   = .00196134
INCLINATION    = 82.4982
RA_OF_ASC_NODE = 49.8007
ARG_OF_PERICENTER = 223.7305
MEAN_ANOMALY   = 136.2358

EPHEMERIS_TYPE = 0
CLASSIFICATION_TYPE = U
NORAD_CAT_ID   = 18153
ELEMENT_SET_NO = 999
REV_AT_EPOCH   = 6036
BSTAR          = .82945822E-4
MEAN_MOTION_DOT = .743E-5
MEAN_MOTION_DDOT = 0

CCSDS_OMM_VERS = 2.0
CREATION_DATE  = 
ORIGINATOR     = 

OBJECT_NAME    = COSMOS 1867
OBJECT_ID      = 1987-060A
CENTER_NAME    = EARTH
REF_FRAME      = TEME
TIME_SYSTEM    = UTC
MEAN_ELEMENT_THEORY = SGP/SGP4

EPOCH          = 2026-01-04T07:23:40.268544
MEAN_MOTION    = 14.31491027
ECCENTRICITY   = .00137957
INCLINATION    = 65.0108
RA_OF_ASC_NODE = 127.0025
ARG_OF_PERICENTER = 273.4256
MEAN_ANOMALY   = 86.5251

EPHEMERIS_TYPE = 0
CLASSIFICATION_TYPE = U
NORAD_CAT_ID   = 18187
ELEMENT_SET_NO = 999
REV_AT_EPOCH   = 1072
BSTAR          = .4968204E-4
MEAN_MOTION_DOT = .32E-6
MEAN_MOTION_DDOT = 0

CCSDS_OMM_VERS = 2.0
CREATION_DATE  = 
ORIGINATOR     = 

OBJECT_NAME    = SL-14 R/B
OBJECT_ID      = 1988-001B
CENTER_NAME    = EARTH
REF_FRAME      = TEME
TIME_SYSTEM    = UTC
MEAN_ELEMENT_THEORY = SGP/SGP4

EPOCH          = 2026-01-04T05:02:39.356736
MEAN_MOTION    = 14.85451609
ECCENTRICITY   = .00196128
INCLINATION    = 82.5127
RA_OF_ASC_NODE = 256.0139
ARG_OF_PERICENTER = 91.4214
MEAN_ANOMALY   = 268.9249

EPHEMERIS_TYPE = 0
CLASSIFICATION_TYPE = U
NORAD_CAT_ID   = 18749
ELEMENT_SET_NO = 999
REV_AT_EPOCH   = 3245
BSTAR          = .84652214E-4
MEAN_MOTION_DOT = .756E-5
MEAN_MOTION_DDOT = 0

